ONEWEB-0675             
1 55834U 23029AQ  25336.08356939  .00000024  00000+0  26884-4 0  9990
2 55834  87.9192 344.2092 0001583  83.3252 276.8061 13.19723407132921
ONEWEB-0720             
1 55835U 23029AR  25336.07567495  .00000067  00000+0  13611-3 0  9991
2 55835  87.9193 344.2085 0002146  86.3415 273.7963 13.19724214132840
ONEWEB-0537             
1 56046U 23043A   25336.21048050 -.00000031  00000+0 -11445-3 0  9995
2 56046  87.9042 267.9937 0001587  70.9866 289.1437 13.16593954133044
ONEWEB-0538             
1 56047U 23043B   25336.05215146  .00000027  00000+0  37260-4 0  9997
2 56047  87.9037 268.0301 0001846  65.8554 294.2770 13.16594664133036
ONEWEB-0546             
1 56048U 23043C   25336.26748551  .00000156  00000+0  37570-3 0  9998
2 56048  87.9048 267.9775 0001102  65.6836 294.4410 13.16594823133050
ONEWEB-0547             
1 56049U 23043D   25335.90836357 -.00000003  00000+0 -38748-4 0  9993
2 56049  87.9207 283.3216 0001945  75.2416 284.8934 13.21823893132169
ONEWEB-0548             
1 56050U 23043E   25336.21600493  .00000002  00000+0 -27799-4 0  9992
2 56050  87.9033 267.9963 0001910  90.8320 269.3029 13.16592789133046
ONEWEB-0549             
1 56051U 23043F   25336.12804769  .00000024  00000+0  26957-4 0  9993
2 56051  87.9204 283.2921 0002010  72.5306 287.6048 13.21824016132191
ONEWEB-0550             
1 56052U 23043G   25336.26627641  .00000090  00000+0  18606-3 0  9995
2 56052  87.9208 283.2595 0001809  84.6229 275.5111 13.21824468132217
ONEWEB-0551             
1 56053U 23043H   25336.16675846 -.00000105  00000+0 -31210-3 0  9990
2 56053  87.8978 298.5468 0002023  78.4597 281.6760 13.15547531130499
ONEWEB-0552             
1 56054U 23043J   25336.26134542  .00000089  00000+0  18471-3 0  9998
2 56054  87.9207 283.2695 0002140  79.0258 281.1117 13.21825186132215
ONEWEB-0553             
1 56055U 23043K   25336.27380572  .00000116  00000+0  26925-3 0  9990
2 56055  87.9037 267.9849 0001406  77.3311 282.7977 13.16593907133064
ONEWEB-0554             
1 56056U 23043L   25336.26114192  .00000098  00000+0  22161-3 0  9990
2 56056  87.9024 268.0027 0001753  84.9339 275.1992 13.16595485133044
ONEWEB-0555             
1 56057U 23043M   25336.22314440 -.00000075  00000+0 -23099-3 0  9993
2 56057  87.9040 267.9897 0001225  75.6235 284.5032 13.16594254133044
ONEWEB-0557             
1 56058U 23043N   25336.23739188  .00000007  00000+0 -15747-4 0  9991
2 56058  87.9037 268.0001 0001498 121.4078 238.7199 13.16595658133041
ONEWEB-0558             
1 56059U 23043P   25336.25474965  .00000023  00000+0  23930-4 0  9993
2 56059  87.9202 283.2642 0002135  66.0727 294.0630 13.21825958132229
ONEWEB-0559             
1 56060U 23043Q   25336.24324309  .00000007  00000+0 -14049-4 0  9994
2 56060  87.9205 283.2597 0002125  77.2067 282.9304 13.21826465132232
