[{"OBJECT_NAME":"ONEWEB-0675","OBJECT_ID":"2023-029AQ","EPOCH":"2025-12-02T02:00:20.395296","MEAN_MOTION":13.19723407,"ECCENTRICITY":0.00015837,"INCLINATION":87.9192,"RA_OF_ASC_NODE":344.2092,"ARG_OF_PERICENTER":83.3252,"MEAN_ANOMALY":276.8061,"EPHEMERIS_TYPE":0,"CLASSIFICATION_TYPE":"U","NORAD_CAT_ID":55834,"ELEMENT_SET_NO":999,"REV_AT_EPOCH":13292,"BSTAR":2.6883905e-5,"MEAN_MOTION_DOT":2.4e-7,"MEAN_MOTION_DDOT":0},{"OBJECT_NAME":"ONEWEB-0720","OBJECT_ID":"2023-029AR","EPOCH":"2025-12-02T01:48:58.315680","MEAN_MOTION":13.19724214,"ECCENTRICITY":0.00021468,"INCLINATION":87.9193,"RA_OF_ASC_NODE":344.2085,"ARG_OF_PERICENTER":86.3415,"MEAN_ANOMALY":273.7963,"EPHEMERIS_TYPE":0,"CLASSIFICATION_TYPE":"U","NORAD_CAT_ID":55835,"ELEMENT_SET_NO":999,"REV_AT_EPOCH":13284,"BSTAR":0.00013610919,"MEAN_MOTION_DOT":6.7e-7,"MEAN_MOTION_DDOT":0},{"OBJECT_NAME":"ONEWEB-0537","OBJECT_ID":"2023-043A","EPOCH":"2025-12-02T05:03:05.515200","MEAN_MOTION":13.16593954,"ECCENTRICITY":0.00015877,"INCLINATION":87.9042,"RA_OF_ASC_NODE":267.9937,"ARG_OF_PERICENTER":70.9866,"MEAN_ANOMALY":289.1437,"EPHEMERIS_TYPE":0,"CLASSIFICATION_TYPE":"U","NORAD_CAT_ID":56046,"ELEMENT_SET_NO":999,"REV_AT_EPOCH":13304,"BSTAR":-0.00011444654,"MEAN_MOTION_DOT":-3.1e-7,"MEAN_MOTION_DDOT":0},{"OBJECT_NAME":"ONEWEB-0538","OBJECT_ID":"2023-043B","EPOCH":"2025-12-02T01:15:05.886144","MEAN_MOTION":13.16594664,"ECCENTRICITY":0.00018465,"INCLINATION":87.9037,"RA_OF_ASC_NODE":268.0301,"ARG_OF_PERICENTER":65.8554,"MEAN_ANOMALY":294.277,"EPHEMERIS_TYPE":0,"CLASSIFICATION_TYPE":"U","NORAD_CAT_ID":56047,"ELEMENT_SET_NO":999,"REV_AT_EPOCH":13303,"BSTAR":3.7260441e-5,"MEAN_MOTION_DOT":2.7e-7,"MEAN_MOTION_DDOT":0},{"OBJECT_NAME":"ONEWEB-0546","OBJECT_ID":"2023-043C","EPOCH":"2025-12-02T06:25:10.748064","MEAN_MOTION":13.16594823,"ECCENTRICITY":0.0001102,"INCLINATION":87.9048,"RA_OF_ASC_NODE":267.9775,"ARG_OF_PERICENTER":65.6836,"MEAN_ANOMALY":294.441,"EPHEMERIS_TYPE":0,"CLASSIFICATION_TYPE":"U","NORAD_CAT_ID":56048,"ELEMENT_SET_NO":999,"REV_AT_EPOCH":13305,"BSTAR":0.00037569757,"MEAN_MOTION_DOT":1.56e-6,"MEAN_MOTION_DDOT":0},{"OBJECT_NAME":"ONEWEB-0547","OBJECT_ID":"2023-043D","EPOCH":"2025-12-01T21:48:02.612448","MEAN_MOTION":13.21823893,"ECCENTRICITY":0.0001945,"INCLINATION":87.9207,"RA_OF_ASC_NODE":283.3216,"ARG_OF_PERICENTER":75.2416,"MEAN_ANOMALY":284.8934,"EPHEMERIS_TYPE":0,"CLASSIFICATION_TYPE":"U","NORAD_CAT_ID":56049,"ELEMENT_SET_NO":999,"REV_AT_EPOCH":13216,"BSTAR":-3.8748025e-5,"MEAN_MOTION_DOT":-3.0e-8,"MEAN_MOTION_DDOT":0},{"OBJECT_NAME":"ONEWEB-0548","OBJECT_ID":"2023-043E","EPOCH":"2025-12-02T05:11:02.825952","MEAN_MOTION":13.16592789,"ECCENTRICITY":0.00019107,"INCLINATION":87.9033,"RA_OF_ASC_NODE":267.9963,"ARG_OF_PERICENTER":90.832,"MEAN_ANOMALY":269.3029,"EPHEMERIS_TYPE":0,"CLASSIFICATION_TYPE":"U","NORAD_CAT_ID":56050,"ELEMENT_SET_NO":999,"REV_AT_EPOCH":13304,"BSTAR":-2.7798796e-5,"MEAN_MOTION_DOT":2.0e-8,"MEAN_MOTION_DDOT":0},{"OBJECT_NAME":"ONEWEB-0549","OBJECT_ID":"2023-043F","EPOCH":"2025-12-02T03:04:23.320416","MEAN_MOTION":13.21824016,"ECCENTRICITY":0.00020103,"INCLINATION":87.9204,"RA_OF_ASC_NODE":283.2921,"ARG_OF_PERICENTER":72.5306,"MEAN_ANOMALY":287.6048,"EPHEMERIS_TYPE":0,"CLASSIFICATION_TYPE":"U","NORAD_CAT_ID":56051,"ELEMENT_SET_NO":999,"REV_AT_EPOCH":13219,"BSTAR":2.6957379e-5,"MEAN_MOTION_DOT":2.4e-7,"MEAN_MOTION_DDOT":0},{"OBJECT_NAME":"ONEWEB-0550","OBJECT_ID":"2023-043G","EPOCH":"2025-12-02T06:23:26.281824","MEAN_MOTION":13.21824468,"ECCENTRICITY":0.00018098,"INCLINATION":87.9208,"RA_OF_ASC_NODE":283.2595,"ARG_OF_PERICENTER":84.6229,"MEAN_ANOMALY":275.5111,"EPHEMERIS_TYPE":0,"CLASSIFICATION_TYPE":"U","NORAD_CAT_ID":56052,"ELEMENT_SET_NO":999,"REV_AT_EPOCH":13221,"BSTAR":0.00018606263,"MEAN_MOTION_DOT":9.0e-7,"MEAN_MOTION_DDOT":0},{"OBJECT_NAME":"ONEWEB-0551","OBJECT_ID":"2023-043H","EPOCH":"2025-12-02T04:00:07.930944","MEAN_MOTION":13.15547531,"ECCENTRICITY":0.0002023,"INCLINATION":87.8978,"RA_OF_ASC_NODE":298.5468,"ARG_OF_PERICENTER":78.4597,"MEAN_ANOMALY":281.676,"EPHEMERIS_TYPE":0,"CLASSIFICATION_TYPE":"U","NORAD_CAT_ID":56053,"ELEMENT_SET_NO":999,"REV_AT_EPOCH":13049,"BSTAR":-0.00031210435,"MEAN_MOTION_DOT":-1.05e-6,"MEAN_MOTION_DDOT":0},{"OBJECT_NAME":"ONEWEB-0552","OBJECT_ID":"2023-043J","EPOCH":"2025-12-02T06:16:20.244288","MEAN_MOTION":13.21825186,"ECCENTRICITY":0.00021407,"INCLINATION":87.9207,"RA_OF_ASC_NODE":283.2695,"ARG_OF_PERICENTER":79.0258,"MEAN_ANOMALY":281.1117,"EPHEMERIS_TYPE":0,"CLASSIFICATION_TYPE":"U","NORAD_CAT_ID":56054,"ELEMENT_SET_NO":999,"REV_AT_EPOCH":13221,"BSTAR":0.00018471181,"MEAN_MOTION_DOT":8.9e-7,"MEAN_MOTION_DDOT":0},{"OBJECT_NAME":"ONEWEB-0553","OBJECT_ID":"2023-043K","EPOCH":"2025-12-02T06:34:16.814208","MEAN_MOTION":13.16593907,"ECCENTRICITY":0.00014067,"INCLINATION":87.9037,"RA_OF_ASC_NODE":267.9849,"ARG_OF_PERICENTER":77.3311,"MEAN_ANOMALY":282.7977,"EPHEMERIS_TYPE":0,"CLASSIFICATION_TYPE":"U","NORAD_CAT_ID":56055,"ELEMENT_SET_NO":999,"REV_AT_EPOCH":13306,"BSTAR":0.00026925206,"MEAN_MOTION_DOT":1.16e-6,"MEAN_MOTION_DDOT":0},{"OBJECT_NAME":"ONEWEB-0554","OBJECT_ID":"2023-043L","EPOCH":"2025-12-02T06:16:02.661888","MEAN_MOTION":13.16595485,"ECCENTRICITY":0.00017536,"INCLINATION":87.9024,"RA_OF_ASC_NODE":268.0027,"ARG_OF_PERICENTER":84.9339,"MEAN_ANOMALY":275.1992,"EPHEMERIS_TYPE":0,"CLASSIFICATION_TYPE":"U","NORAD_CAT_ID":56056,"ELEMENT_SET_NO":999,"REV_AT_EPOCH":13304,"BSTAR":0.00022160847,"MEAN_MOTION_DOT":9.8e-7,"MEAN_MOTION_DDOT":0},{"OBJECT_NAME":"ONEWEB-0555","OBJECT_ID":"2023-043M","EPOCH":"2025-12-02T05:21:19.676160","MEAN_MOTION":13.16594254,"ECCENTRICITY":0.00012252,"INCLINATION":87.904,"RA_OF_ASC_NODE":267.9897,"ARG_OF_PERICENTER":75.6235,"MEAN_ANOMALY":284.5032,"EPHEMERIS_TYPE":0,"CLASSIFICATION_TYPE":"U","NORAD_CAT_ID":56057,"ELEMENT_SET_NO":999,"REV_AT_EPOCH":13304,"BSTAR":-0.00023098756,"MEAN_MOTION_DOT":-7.5e-7,"MEAN_MOTION_DDOT":0},{"OBJECT_NAME":"ONEWEB-0557","OBJECT_ID":"2023-043N","EPOCH":"2025-12-02T05:41:50.658432","MEAN_MOTION":13.16595658,"ECCENTRICITY":0.00014982,"INCLINATION":87.9037,"RA_OF_ASC_NODE":268.0001,"ARG_OF_PERICENTER":121.4078,"MEAN_ANOMALY":238.7199,"EPHEMERIS_TYPE":0,"CLASSIFICATION_TYPE":"U","NORAD_CAT_ID":56058,"ELEMENT_SET_NO":999,"REV_AT_EPOCH":13304,"BSTAR":-1.5747106e-5,"MEAN_MOTION_DOT":7.0e-8,"MEAN_MOTION_DDOT":0},{"OBJECT_NAME":"ONEWEB-0558","OBJECT_ID":"2023-043P","EPOCH":"2025-12-02T06:06:50.369760","MEAN_MOTION":13.21825958,"ECCENTRICITY":0.00021358,"INCLINATION":87.9202,"RA_OF_ASC_NODE":283.2642,"ARG_OF_PERICENTER":66.0727,"MEAN_ANOMALY":294.063,"EPHEMERIS_TYPE":0,"CLASSIFICATION_TYPE":"U","NORAD_CAT_ID":56059,"ELEMENT_SET_NO":999,"REV_AT_EPOCH":13222,"BSTAR":2.3929796e-5,"MEAN_MOTION_DOT":2.3e-7,"MEAN_MOTION_DDOT":0},{"OBJECT_NAME":"ONEWEB-0559","OBJECT_ID":"2023-043Q","EPOCH":"2025-12-02T05:50:16.202976","MEAN_MOTION":13.21826465,"ECCENTRICITY":0.00021252,"INCLINATION":87.9205,"RA_OF_ASC_NODE":283.2597,"ARG_OF_PERICENTER":77.2067,"MEAN_ANOMALY":282.9304,"EPHEMERIS_TYPE":0,"CLASSIFICATION_TYPE":"U","NORAD_CAT_ID":56060,"ELEMENT_SET_NO":999,"REV_AT_EPOCH":13223,"BSTAR":-1.4049053e-5,"MEAN_MOTION_DOT":7.0e-8,"MEAN_MOTION_DDOT":0}]
